NORAD_CAT_ID,OBJECT_NAME,OBJECT_TYPE,EPOCH,MEAN_MOTION,ECCENTRICITY,INCLINATION,RA_OF_ASC_NODE,ARG_OF_PERICENTER,MEAN_ANOMALY,BSTAR,MEAN_MOTION_DOT,MEAN_MOTION_DDOT,TLE_LINE0,TLE_LINE1,TLE_LINE2,SEMIMAJOR_AXIS,PERIOD,APOGEE,PERIGEE,DECAYED
54800.0,STARLINK-5428,PAYLOAD,2023-10-03 16:25:11,15.0884314,0.0001441,53.2165,60.3008,95.5492,264.5665,0.00011093,1.478e-05,0.0,0 STARLINK-5428,1 54800U 22175AU  23276.68415589  .00001478  00000-0  11093-3 0  9997,2 54800  53.2165  60.3008 0001441  95.5492 264.5665 15.08843140 46000,6917.871,95.437,540.733,538.739,0.0
54800.0,STARLINK-5428,PAYLOAD,2023-10-04 14:40:34,15.08848918,0.0001554,53.2174,56.1395,75.7176,284.3989,0.00033623,5.068e-05,0.0,0 STARLINK-5428,1 54800U 22175AU  23277.61151619  .00005068  00000-0  33623-3 0  9994,2 54800  53.2174  56.1395 0001554  75.7176 284.3989 15.08848918 46148,6917.853,95.437,540.793,538.643,0.0
54800.0,STARLINK-5428,PAYLOAD,2023-10-04 16:15:57,15.08855172,0.0001428,53.2173,55.8422,78.4888,281.6264,0.00040898,6.23e-05,0.0,0 STARLINK-5428,1 54800U 22175AU  23277.67775315  .00006230  00000-0  40898-3 0  9999,2 54800  53.2173  55.8422 0001428  78.4888 281.6264 15.08855172 43990,6917.834,95.437,540.687,538.711,0.0
54800.0,STARLINK-5428,PAYLOAD,2023-10-05 01:48:16,15.08845779,0.0001401,53.2177,54.0573,75.2933,284.8214,0.00018888,2.72e-05,0.0,0 STARLINK-5428,1 54800U 22175AU  23278.07519427  .00002720  00000-0  18888-3 0  9998,2 54800  53.2177  54.0573 0001401  75.2933 284.8214 15.08845779 44059,6917.863,95.437,540.697,538.759,0.0
54800.0,STARLINK-5428,PAYLOAD,2023-10-05 09:45:12,15.08836614,0.0001637,53.2178,52.5735,70.3197,289.7971,-3.6937e-05,-8.76e-06,0.0,0 STARLINK-5428,1 54800U 22175AU  23278.40639881 -.00000876  00000-0 -36937-4 0  9990,2 54800  53.2178  52.5735 0001637  70.3197 289.7971 15.08836614 44100,6917.891,95.438,540.888,538.623,0.0
54800.0,STARLINK-5428,PAYLOAD,2023-10-05 12:55:59,15.08839589,0.0001536,53.2174,51.9777,77.2674,282.849,3.0409e-05,1.96e-06,0.0,0 STARLINK-5428,1 54800U 22175AU  23278.53887851  .00000196  00000-0  30409-4 0  9997,2 54800  53.2174  51.9777 0001536  77.2674 282.8490 15.08839589 46284,6917.882,95.438,540.809,538.684,0.0
54800.0,STARLINK-5428,PAYLOAD,2023-10-05 16:06:45,15.08851391,0.0001451,53.2172,51.3838,77.6767,282.4387,0.00026927,4.001e-05,0.0,0 STARLINK-5428,1 54800U 22175AU  23278.67135419  .00004001  00000-0  26927-3 0  9996,2 54800  53.2172  51.3838 0001451  77.6767 282.4387 15.08851391 44146,6917.846,95.437,540.714,538.707,0.0
54800.0,STARLINK-5428,PAYLOAD,2023-10-06 12:46:46,15.0883531,0.0001315,53.217,47.5175,86.7014,273.4129,4.2548e-05,3.89e-06,0.0,0 STARLINK-5428,1 54800U 22175AU  23279.53248154  .00000389  00000-0  42548-4 0  9996,2 54800  53.2170  47.5175 0001315  86.7014 273.4129 15.08835310 46431,6917.895,95.438,540.669,538.85,0.0
54800.0,STARLINK-5428,PAYLOAD,2023-10-06 15:57:32,15.08839602,0.0001331,53.2172,46.923,80.9908,279.1235,0.00019401,2.801e-05,0.0,0 STARLINK-5428,1 54800U 22175AU  23279.66496161  .00002801  00000-0  19401-3 0  9995,2 54800  53.2172  46.9230 0001331  80.9908 279.1235 15.08839602 44295,6917.882,95.438,540.667,538.826,0.0
54800.0,STARLINK-5428,PAYLOAD,2023-10-07 14:12:56,15.08846086,0.0001346,53.2165,42.7606,78.6731,281.4412,0.00038094,5.781e-05,0.0,0 STARLINK-5428,1 54800U 22175AU  23280.59232323  .00005781  00000-0  38094-3 0  9996,2 54800  53.2165  42.7606 0001346  78.6731 281.4412 15.08846086 46594,6917.862,95.437,540.658,538.796,0.0
54800.0,STARLINK-5428,PAYLOAD,2023-10-07 15:48:19,15.08850225,0.0001361,53.2165,42.463,77.3823,282.7322,0.00055486,8.556e-05,0.0,0 STARLINK-5428,1 54800U 22175AU  23280.65856236  .00008556  00000-0  55486-3 0  9995,2 54800  53.2165  42.4630 0001361  77.3823 282.7322 15.08850225 46609,6917.849,95.437,540.656,538.773,0.0
54800.0,STARLINK-5428,PAYLOAD,2023-10-08 01:20:38,15.08843477,0.0001237,53.218,40.6787,84.2259,275.8874,0.00045599,6.977e-05,0.0,0 STARLINK-5428,1 54800U 22175AU  23281.05600297  .00006977  00000-0  45599-3 0  9993,2 54800  53.2180  40.6787 0001237  84.2259 275.8874 15.08843477 44504,6917.87,95.437,540.591,538.879,0.0
54800.0,STARLINK-5428,PAYLOAD,2023-10-08 14:03:43,15.08843516,0.0001335,53.2168,38.2996,90.7971,269.3174,0.00023294,3.422e-05,0.0,0 STARLINK-5428,1 54800U 22175AU  23281.58592457  .00003422  00000-0  23294-3 0  9999,2 54800  53.2168  38.2996 0001335  90.7971 269.3174 15.08843516 46740,6917.87,95.437,540.658,538.811,0.0
54800.0,STARLINK-5428,PAYLOAD,2023-10-08 15:39:06,15.08849788,0.0001474,53.2163,38.0029,84.5726,275.5435,0.00034354,5.185e-05,0.0,0 STARLINK-5428,1 54800U 22175AU  23281.65216296  .00005185  00000-0  34354-3 0  9998,2 54800  53.2163  38.0029 0001474  84.5726 275.5435 15.08849788 46750,6917.85,95.437,540.735,538.696,0.0
54800.0,STARLINK-5428,PAYLOAD,2023-10-09 01:11:25,15.08847851,0.0001419,53.2168,36.2176,91.778,268.3374,0.00033745,5.088e-05,0.0,0 STARLINK-5428,1 54800U 22175AU  23282.04960238  .00005088  00000-0  33745-3 0  9999,2 54800  53.2168  36.2176 0001419  91.7780 268.3374 15.08847851 44655,6917.856,95.437,540.703,538.74,0.0
54800.0,STARLINK-5428,PAYLOAD,2023-10-09 07:32:58,15.0884112,0.0001621,53.218,35.031,88.1775,271.9402,0.00018483,2.655e-05,0.0,0 STARLINK-5428,1 54800U 22175AU  23282.31456547  .00002655  00000-0  18483-3 0  9991,2 54800  53.2180  35.0310 0001621  88.1775 271.9402 15.08841120 44694,6917.877,95.437,540.863,538.621,0.0
54800.0,STARLINK-5428,PAYLOAD,2023-10-09 13:54:30,15.08846711,0.0001444,53.2174,33.8404,92.1855,267.9303,0.00024054,3.543e-05,0.0,0 STARLINK-5428,1 54800U 22175AU  23282.57952320  .00003543  00000-0  24054-3 0  9997,2 54800  53.2174  33.8404 0001444  92.1855 267.9303 15.08846711 46894,6917.86,95.437,540.724,538.726,0.0
54800.0,STARLINK-5428,PAYLOAD,2023-10-10 13:45:18,15.08837069,0.0001585,53.218,29.3773,88.9862,271.1311,0.00019823,2.868e-05,0.0,0 STARLINK-5428,1 54800U 22175AU  23283.57313347  .00002868  00000-0  19823-3 0  9995,2 54800  53.2180  29.3773 0001585  88.9862 271.1311 15.08837069 44886,6917.889,95.438,540.851,538.658,0.0
54800.0,STARLINK-5428,PAYLOAD,2023-10-11 13:36:05,15.08858109,0.0001594,53.2182,24.9175,81.8548,278.2625,0.00078619,0.00012253,0.0,0 STARLINK-5428,1 54800U 22175AU  23284.56673106  .00012253  00000-0  78619-3 0  9994,2 54800  53.2182  24.9175 0001594  81.8548 278.2625 15.08858109 47199,6917.825,95.436,540.793,538.587,0.0
54800.0,STARLINK-5428,PAYLOAD,2023-10-12 13:26:52,15.08863758,0.0001384,53.2181,20.459,87.1917,272.9233,0.00060128,9.301e-05,0.0,0 STARLINK-5428,1 54800U 22175AU  23285.56032523  .00009301  00000-0  60128-3 0  9993,2 54800  53.2181  20.4590 0001384  87.1917 272.9233 15.08863758 47345,6917.808,95.436,540.63,538.715,0.0
54800.0,STARLINK-5428,PAYLOAD,2023-10-12 18:13:01,15.08873721,0.0001619,53.2183,19.5655,88.0422,272.0755,0.00099048,0.00015525,0.0,0 STARLINK-5428,1 54800U 22175AU  23285.75904086  .00015525  00000-0  99048-3 0  9994,2 54800  53.2183  19.5655 0001619  88.0422 272.0755 15.08873721 45215,6917.777,95.435,540.762,538.522,0.0
54800.0,STARLINK-5428,PAYLOAD,2023-10-13 13:17:38,15.08860912,0.0001687,53.219,16.0005,81.0195,279.0988,0.0013398,0.00021111,0.0,0 STARLINK-5428,1 54800U 22175AU  23286.55392314  .00021111  00000-0  13398-2 0  9999,2 54800  53.2190  16.0005 0001687  81.0195 279.0988 15.08860912 45335,6917.816,95.436,540.849,538.514,0.0
54800.0,STARLINK-5428,PAYLOAD,2023-10-14 09:57:39,15.08863468,0.0001388,53.2173,12.1352,74.8598,285.2548,0.0012013,0.00018895,0.0,0 STARLINK-5428,1 54800U 22175AU  23287.41503917  .00018895  00000-0  12013-2 0  9996,2 54800  53.2173  12.1352 0001388  74.8598 285.2548 15.08863468 45467,6917.809,95.436,540.634,538.713,0.0
54800.0,STARLINK-5428,PAYLOAD,2023-10-14 13:08:25,15.08867222,0.000143,53.217,11.5408,75.3457,284.7694,0.0010962,0.00017214,0.0,0 STARLINK-5428,1 54800U 22175AU  23287.54751671  .00017214  00000-0  10962-2 0  9997,2 54800  53.2170  11.5408 0001430  75.3457 284.7694 15.08867222 47647,6917.797,95.436,540.651,538.673,0.0
54800.0,STARLINK-5428,PAYLOAD,2023-10-14 22:40:44,15.08844945,0.0001575,53.2177,9.7539,90.2679,269.8494,0.00026879,3.993e-05,0.0,0 STARLINK-5428,1 54800U 22175AU  23287.94495902  .00003993  00000-0  26879-3 0  9997,2 54800  53.2177   9.7539 0001575  90.2679 269.8494 15.08844945 45546,6917.865,95.437,540.82,538.641,0.0
54800.0,STARLINK-5428,PAYLOAD,2023-10-15 12:59:13,15.08812806,0.0001396,53.2165,7.0781,101.8797,258.2352,0.0017344,0.00027402,0.0,0 STARLINK-5428,1 54800U 22175AU  23288.54113413  .00027402  00000-0  17344-2 0  9995,2 54800  53.2165   7.0781 0001396 101.8797 258.2352 15.08812806 45630,6917.964,95.439,540.794,538.863,0.0
54800.0,STARLINK-5428,PAYLOAD,2023-10-15 14:34:37,15.08814674,0.0001476,53.2164,6.7808,100.7438,259.372,0.0018708,0.00029591,0.0,0 STARLINK-5428,1 54800U 22175AU  23288.60737590  .00029591  00000-0  18708-2 0  9996,2 54800  53.2164   6.7808 0001476 100.7438 259.3720 15.08814674 47801,6917.958,95.439,540.844,538.802,0.0
54800.0,STARLINK-5428,PAYLOAD,2023-10-16 12:50:01,15.08859788,0.000151,53.2162,2.6187,93.458,266.6585,0.0017461,0.00027626,0.0,0 STARLINK-5428,1 54800U 22175AU  23289.53473849  .00027626  00000-0  17461-2 0  9995,2 54800  53.2162   2.6187 0001510  93.4580 266.6585 15.08859788 45789,6917.82,95.436,540.729,538.64,0.0
54800.0,STARLINK-5428,PAYLOAD,2023-10-17 11:05:24,15.08855475,0.000147,53.2161,358.4553,100.992,259.1237,0.0013084,0.00020605,0.0,0 STARLINK-5428,1 54800U 22175AU  23290.46209398  .00020605  00000-0  13084-2 0  9992,2 54800  53.2161 358.4553 0001470 100.9920 259.1237 15.08855475 45920,6917.833,95.437,540.715,538.681,0.0
54800.0,STARLINK-5428,PAYLOAD,2023-10-17 22:13:07,15.08852863,0.0001533,53.2162,356.3733,95.5225,264.5942,0.001374,0.00021655,0.0,0 STARLINK-5428,1 54800U 22175AU  23290.92577547  .00021655  00000-0  13740-2 0  9992,2 54800  53.2162 356.3733 0001533  95.5225 264.5942 15.08852863 48154,6917.841,95.437,540.767,538.646,0.0
